CUBEBUG-2 (LO-74)
1 39440U 13066AA  26179.58443150  .00004053  00000-0  37527-3 0  9990
2 39440  97.8905 128.6113 0057204 351.3387   8.6839 14.93851998678697
FUNCUBE-1 (AO-73)
1 39444U 13066AE  26179.45788280  .00006401  00000-0  39597-3 0  9994
2 39444  97.8276 151.1398 0036836 162.5182 197.7324 15.09621583681361
UWE-3
1 39446U 13066AG  26179.44451049  .00003077  00000-0  26620-3 0  9994
2 39446  97.8711 135.5954 0046869 282.8704  76.7284 14.97111918679263
UNISAT-6
1 40012U 14033C   26179.36124385  .00002613  00000-0  28336-3 0  9992
2 40012  97.7885 331.8770 0045561  33.2945 327.1123 14.88298052647822
DUCHIFAT-1
1 40021U 14033M   26178.88715589  .00115475  00000-0  10822-2 0  9991
2 40021  98.0448 239.5673 0000744 102.2255 257.9087 15.66842534657425
LILACSAT-2
1 40908U 15049K   26179.62270515  .00016511  00000-0  27751-3 0  9992
2 40908  97.4632 216.9005 0006647 195.6057 164.4992 15.51815407597523
CAS-2T & KS-1Q
1 41847U 16066G   26179.46064137  .00001594  00000-0  22985-3 0  9997
2 41847  98.3821 255.0681 0342884  95.3928 268.6474 14.44729722506425
FOX-1B (AO-91)
1 43017U 17073E   26179.58479444  .00006671  00000-0  29239-3 0  9991
2 43017  97.4690  46.5670 0148535 289.4918  69.0319 15.12867010467115
FUNCUBE-3 (EO-79)/QB50P1
1 40025U 14033R   26179.55127568  .00007122  00000-0  34934-3 0  9994
2 40025  98.0959 191.4949 0009012 175.2402 184.8917 15.18428060654753
FOX-1A (AO-85)
1 40967U 15058D   26179.55386048  .00001884  00000-0  17662-3 0  9995
2 40967  64.7745 243.6587 0131145  52.1698 309.1198 14.91015179115266
DIWATA-2B (PO-101)
1 43678U 18084H   26179.57331154  .00002144  00000-0  17512-3 0  9993
2 43678  98.1202  16.2785 0013061 134.7071 225.5218 15.00500751417927
ESHAIL-2
1 43700U 18090A   26179.59552284  .00000000  00000-0  00000-0 0  9997
2 43700   0.0277  21.9304 0002234 109.9138  25.0182  1.00270705 27798
ITASAT-1
1 43786U 18099AE  26179.61472012  .00006373  00000-0  30556-3 0  9994
2 43786  97.4026 230.8987 0011063 317.4387  42.5989 15.19194225414644
FOX-1CLIFF (AO-95)
1 43770U 18099N   26179.61231892  .00010033  00000-0  38164-3 0  9997
2 43770  97.4385 239.8174 0007055 311.8599  48.2037 15.26945463414969
JY1SAT (JO-97)
1 43803U 18099AX  26179.44736791  .00016830  00000-0  51325-3 0  9998
2 43803  97.4130 242.3225 0005223 213.7756 146.3154 15.34004441415355
UWE-4
1 43880U 18111E   26179.53872594  .00031577  00000-0  62946-3 0  9996
2 43880  97.5851 108.4577 0004276 280.8258  79.2510 15.46817375412530
CAS-6 (TO-108)
1 44881U 19093C   26179.62245478  .00001165  00000-0  13743-3 0  9994
2 44881  97.7533 251.5756 0014837  53.0661 307.1912 14.86537641353117
DOSAAF-85 (RS-44)
1 44909U 19096E   26179.65418213  .00000012  00000-0 -51329-5 0  9995
2 44909  82.5227 332.0842 0218503 117.4694 244.8808 12.79749005303810
SALSAT (TUBSAT 22)
1 46495U 20068K   26179.59166665  .00006710  00000-0  23412-3 0  9992
2 46495  97.8846 183.3517 0007860 259.1040 100.9315 15.29955960317104
CAMSAT XW-3 (CAS-9)
1 50466U 21131B   26179.57815890  .00000405  00000-0  13870-3 0  9998
2 50466  98.4989 271.9062 0005321  70.4372 289.7391 14.41367271236759
ROBUSTA 1F (MTCUBE-2)
1 53109U 22080E   26178.76757484 -.00000003  00000-0  00000-0 0  9996
2 53109  70.1441 294.5656 0008984 287.3296  72.6381  6.42583239 92741
UMKA-1 (RS40S)
1 57172U 23091G   26179.60778577  .00005535  00000-0  25253-3 0  9997
2 57172  97.5049 238.2612 0014230  82.4085 277.8766 15.20946434165743
CUBESX-HSE-3 (RS42S)
1 57178U 23091N   26179.60906105  .00012427  00000-0  41018-3 0  9998
2 57178  97.5093 245.3417 0011352  58.8645 301.3708 15.31496155166170
MONITOR-3 (RS58S)
1 57180U 23091Q   26179.59345056  .00010241  00000-0  37594-3 0  9997
2 57180  97.5084 243.1239 0012594  65.2521 295.0027 15.28066260166039
MONITOR-4 (RS57S)
1 57182U 23091S   26179.57187424  .00009953  00000-0  36453-3 0  9991
2 57182  97.5079 243.0740 0012618  65.6044 294.6511 15.28150882166039
MONITOR-2 (RS39S)
1 57184U 23091U   26179.57758025  .00004899  00000-0  23685-3 0  9991
2 57184  97.5072 237.7870 0012651  76.6252 283.6392 15.19012961165688
SVYATOBOR-1 (RS60S)
1 57187U 23091X   26179.52932191  .00008764  00000-0  33498-3 0  9995
2 57187  97.5091 243.4096 0010354  60.0493 300.1773 15.26802562166049
VIZARD-METEO (RS38S)
1 57189U 23091Z   26179.61193588  .00015934  00000-0  45063-3 0  9994
2 57189  97.5094 249.3278 0007339  41.7607 318.4196 15.36381303166444
UTMN-2 (RS27S)
1 57203U 23091AP  26179.62044006  .00011890  00000-0  38296-3 0  9999
2 57203  97.5089 247.0010 0008472  48.7906 311.4065 15.32323538166295
POLYTECH UNIVERSE-3 (RS46S)
1 57191U 23091AB  26179.60325668  .00004647  00000-0  22316-3 0  9997
2 57191  97.5047 237.3167 0017038  90.7839 269.5348 15.19219580165685
