OBJECT_NAME,OBJECT_ID,EPOCH,MEAN_MOTION,ECCENTRICITY,INCLINATION,RA_OF_ASC_NODE,ARG_OF_PERICENTER,MEAN_ANOMALY,EPHEMERIS_TYPE,CLASSIFICATION_TYPE,NORAD_CAT_ID,ELEMENT_SET_NO,REV_AT_EPOCH,BSTAR,MEAN_MOTION_DOT,MEAN_MOTION_DDOT
CUBEBUG-2 (LO-74),2013-066AA,2026-06-28T14:01:34.881600,14.93851998,.00572043,97.8905,128.6113,351.3387,8.6839,0,U,39440,999,67869,.37527473E-3,.4053E-4,0
FUNCUBE-1 (AO-73),2013-066AE,2026-06-28T10:59:21.073920,15.09621583,.00368356,97.8276,151.1398,162.5182,197.7324,0,U,39444,999,68136,.39597136E-3,.6401E-4,0
UWE-3,2013-066AG,2026-06-28T10:40:05.706336,14.97111918,.00468686,97.8711,135.5954,282.8704,76.7284,0,U,39446,999,67926,.2662015E-3,.3077E-4,0
UNISAT-6,2014-033C,2026-06-28T08:40:11.468640,14.88298052,.00455609,97.7885,331.8770,33.2945,327.1123,0,U,40012,999,64782,.28335973E-3,.2613E-4,0
DUCHIFAT-1,2014-033M,2026-06-27T21:17:30.268896,15.66842534,.0000744,98.0448,239.5673,102.2255,257.9087,0,U,40021,999,65742,.10822E-2,.115475E-2,0
QB50P1,2014-033R,2026-06-28T13:13:50.218752,15.18428060,.00090121,98.0959,191.4949,175.2402,184.8917,0,U,40025,999,65475,.34933909E-3,.7122E-4,0
LILACSAT-2,2015-049K,2026-06-28T14:56:41.724960,15.51815407,.00066469,97.4632,216.9005,195.6057,164.4992,0,U,40908,999,59752,.27751152E-3,.16511E-3,0
FOX-1A (AO-85),2015-058D,2026-06-28T13:17:33.545472,14.91015179,.01311451,64.7745,243.6587,52.1698,309.1198,0,U,40967,999,11526,.17661993E-3,.1884E-4,0
CAS-2T & KS-1Q,2016-066G,2026-06-28T11:03:19.414368,14.44729722,.0342884,98.3821,255.0681,95.3928,268.6474,0,U,41847,999,50642,.22985217E-3,.1594E-4,0
RADFXSAT (FOX-1B),2017-073E,2026-06-28T14:02:06.239616,15.12867010,.01485354,97.4690,46.5670,289.4918,69.0319,0,U,43017,999,46711,.29239469E-3,.6671E-4,0
DIWATA-2B,2018-084H,2026-06-28T13:45:34.117056,15.00500751,.00130607,98.1202,16.2785,134.7071,225.5218,0,U,43678,999,41792,.17512044E-3,.2144E-4,0
ES'HAIL 2,2018-090A,2026-06-28T14:17:33.173376,1.00270705,.00022343,0.0277,21.9304,109.9138,25.0182,0,U,43700,999,2779,0,0,0
FOX-1CLIFF (AO-95),2018-099N,2026-06-28T14:41:44.354688,15.26945463,.00070548,97.4385,239.8174,311.8599,48.2037,0,U,43770,999,41496,.38163646E-3,.10033E-3,0
ITASAT,2018-099AE,2026-06-28T14:45:11.818368,15.19194225,.0011063,97.4026,230.8987,317.4387,42.5989,0,U,43786,999,41464,.30556292E-3,.6373E-4,0
JY1SAT (JO-97),2018-099AX,2026-06-28T10:44:12.587424,15.34004441,.00052226,97.4130,242.3225,213.7756,146.3154,0,U,43803,999,41535,.51324989E-3,.1683E-3,0
UWE-4,2018-111E,2026-06-28T12:55:45.921216,15.46817375,.00042756,97.5851,108.4577,280.8258,79.2510,0,U,43880,999,41253,.62945511E-3,.31577E-3,0
TIANYAN 01,2019-093C,2026-06-28T14:56:20.092992,14.86537641,.00148373,97.7533,251.5756,53.0661,307.1912,0,U,44881,999,35311,.13743378E-3,.1165E-4,0
RS-44 & BREEZE-KM R/B,2019-096E,2026-06-28T15:42:01.336032,12.79749005,.02185032,82.5227,332.0842,117.4694,244.8808,0,U,44909,999,30381,-.5132906E-5,.12E-6,0
SALSAT,2020-068K,2026-06-28T14:11:59.998560,15.29955960,.00078599,97.8846,183.3517,259.1040,100.9315,0,U,46495,999,31710,.23412101E-3,.671E-4,0
XW-3 (CAS-9),2021-131B,2026-06-28T13:52:32.928960,14.41367271,.00053215,98.4989,271.9062,70.4372,289.7391,0,U,50466,999,23675,.13869864E-3,.405E-5,0
GREENCUBE (IO-117),2022-080E,2026-06-27T18:25:18.466176,6.42583239,.00089839,70.1441,294.5656,287.3296,72.6381,0,U,53109,999,9274,0,-.3E-7,0
UMKA 1 (RS40S),2023-091G,2026-06-28T14:35:12.690528,15.20946434,.00142298,97.5049,238.2612,82.4085,277.8766,0,U,57172,999,16574,.25253342E-3,.5535E-4,0
CUBESX-HSE 3 (RS42S),2023-091N,2026-06-28T14:37:02.874720,15.31496155,.00113522,97.5093,245.3417,58.8645,301.3708,0,U,57178,999,16617,.41017848E-3,.12427E-3,0
MONITOR-3 (RS58S),2023-091Q,2026-06-28T14:14:34.128384,15.28066260,.00125936,97.5084,243.1239,65.2521,295.0027,0,U,57180,999,16603,.37593691E-3,.10241E-3,0
MONITOR-4 (RS57S),2023-091S,2026-06-28T13:43:29.934336,15.28150882,.00126182,97.5079,243.0740,65.6044,294.6511,0,U,57182,999,16603,.3645297E-3,.9953E-4,0
MONITOR-2 (RS39S),2023-091U,2026-06-28T13:51:42.933600,15.19012961,.00126508,97.5072,237.7870,76.6252,283.6392,0,U,57184,999,16568,.23684754E-3,.4899E-4,0
SVYATOBOR 1 (RS60S),2023-091X,2026-06-28T12:42:13.413024,15.26802562,.00103541,97.5091,243.4096,60.0493,300.1773,0,U,57187,999,16604,.33498493E-3,.8764E-4,0
VIZARD-METEO (RS38S),2023-091Z,2026-06-28T14:41:11.260032,15.36381303,.00073392,97.5094,249.3278,41.7607,318.4196,0,U,57189,999,16644,.45063338E-3,.15934E-3,0
POLYTECH-UNIVERSE 3 (RS46S),2023-091AB,2026-06-28T14:28:41.377152,15.19219580,.00170379,97.5047,237.3167,90.7839,269.5348,0,U,57191,999,16568,.22316345E-3,.4647E-4,0
UTMN 2 (RS27S),2023-091AP,2026-06-28T14:53:26.021184,15.32323538,.00084725,97.5089,247.0010,48.7906,311.4065,0,U,57203,999,16629,.3829621E-3,.1189E-3,0
